{"fetched_at":"2026-07-24T07:06:22.638Z","source":"https://celestrak.org/NORAD/elements/gp.php?NAME=CAPELLA&FORMAT=JSON","constellation":"capella","records":[{"OBJECT_NAME":"CAPELLA-11 (ACADIA-1)","OBJECT_ID":"2023-126A","EPOCH":"2026-07-23T19:13:38.456256","CLASSIFICATION_TYPE":"U","MEAN_MOTION":14.85464038,"ECCENTRICITY":0.0002295,"INCLINATION":53.009,"RA_OF_ASC_NODE":25.8731,"ARG_OF_PERICENTER":129.3408,"MEAN_ANOMALY":230.7775,"EPHEMERIS_TYPE":0,"NORAD_CAT_ID":57693,"ELEMENT_SET_NO":999,"REV_AT_EPOCH":15756,"BSTAR":0.00056069,"MEAN_MOTION_DOT":0.00004653,"MEAN_MOTION_DDOT":0},{"OBJECT_NAME":"CAPELLA-14 (ACADIA-4)","OBJECT_ID":"2024-066C","EPOCH":"2026-07-23T18:51:51.359904","CLASSIFICATION_TYPE":"U","MEAN_MOTION":15.06921767,"ECCENTRICITY":0.0001023,"INCLINATION":45.6036,"RA_OF_ASC_NODE":62.8962,"ARG_OF_PERICENTER":209.5821,"MEAN_ANOMALY":150.5005,"EPHEMERIS_TYPE":0,"NORAD_CAT_ID":59444,"ELEMENT_SET_NO":999,"REV_AT_EPOCH":11801,"BSTAR":0.0008169,"MEAN_MOTION_DOT":0.00012168,"MEAN_MOTION_DDOT":0},{"OBJECT_NAME":"CAPELLA-13 (ACADIA-3)","OBJECT_ID":"2024-142A","EPOCH":"2026-07-23T04:13:46.958880","CLASSIFICATION_TYPE":"U","MEAN_MOTION":14.8766649,"ECCENTRICITY":0.00013294,"INCLINATION":53.0038,"RA_OF_ASC_NODE":260.4756,"ARG_OF_PERICENTER":88.5016,"MEAN_ANOMALY":271.6117,"EPHEMERIS_TYPE":0,"NORAD_CAT_ID":60419,"ELEMENT_SET_NO":999,"REV_AT_EPOCH":10576,"BSTAR":0.00029032083,"MEAN_MOTION_DOT":0.00002432,"MEAN_MOTION_DDOT":0},{"OBJECT_NAME":"CAPELLA-15 (ACADIA-5)","OBJECT_ID":"2024-149CE","EPOCH":"2026-07-22T04:29:48.543360","CLASSIFICATION_TYPE":"U","MEAN_MOTION":14.92392787,"ECCENTRICITY":0.00027931,"INCLINATION":97.6752,"RA_OF_ASC_NODE":275.2124,"ARG_OF_PERICENTER":309.4682,"MEAN_ANOMALY":50.629,"EPHEMERIS_TYPE":0,"NORAD_CAT_ID":60544,"ELEMENT_SET_NO":999,"REV_AT_EPOCH":10507,"BSTAR":0.00029174654,"MEAN_MOTION_DOT":0.00002932,"MEAN_MOTION_DDOT":0},{"OBJECT_NAME":"CAPELLA-17 (ACADIA-7)","OBJECT_ID":"2025-135BH","EPOCH":"2026-07-23T18:22:59.206656","CLASSIFICATION_TYPE":"U","MEAN_MOTION":14.91693646,"ECCENTRICITY":0.0004656,"INCLINATION":97.7705,"RA_OF_ASC_NODE":317.8515,"ARG_OF_PERICENTER":216.5246,"MEAN_ANOMALY":143.5655,"EPHEMERIS_TYPE":0,"NORAD_CAT_ID":64583,"ELEMENT_SET_NO":999,"REV_AT_EPOCH":5930,"BSTAR":0.00057791,"MEAN_MOTION_DOT":0.0000576,"MEAN_MOTION_DDOT":0},{"OBJECT_NAME":"CAPELLA-16 (ACADIA-6)","OBJECT_ID":"2025-188D","EPOCH":"2026-07-23T15:49:55.024032","CLASSIFICATION_TYPE":"U","MEAN_MOTION":14.94122591,"ECCENTRICITY":0.0005746,"INCLINATION":97.7366,"RA_OF_ASC_NODE":279.2667,"ARG_OF_PERICENTER":114.9312,"MEAN_ANOMALY":245.2506,"EPHEMERIS_TYPE":0,"NORAD_CAT_ID":65318,"ELEMENT_SET_NO":999,"REV_AT_EPOCH":4936,"BSTAR":0.00056673,"MEAN_MOTION_DOT":0.00006007,"MEAN_MOTION_DDOT":0},{"OBJECT_NAME":"CAPELLA-19 (ACADIA-9)","OBJECT_ID":"2026-004X","EPOCH":"2026-07-23T09:50:28.331232","CLASSIFICATION_TYPE":"U","MEAN_MOTION":14.86659873,"ECCENTRICITY":0.0001586,"INCLINATION":97.8013,"RA_OF_ASC_NODE":202.1288,"ARG_OF_PERICENTER":95.6164,"MEAN_ANOMALY":264.5233,"EPHEMERIS_TYPE":0,"NORAD_CAT_ID":67384,"ELEMENT_SET_NO":999,"REV_AT_EPOCH":2865,"BSTAR":0.00036284,"MEAN_MOTION_DOT":0.00003169,"MEAN_MOTION_DDOT":0},{"OBJECT_NAME":"CAPELLA-18 (ACADIA-8)","OBJECT_ID":"2026-004Y","EPOCH":"2026-07-22T22:46:29.546976","CLASSIFICATION_TYPE":"U","MEAN_MOTION":14.86655189,"ECCENTRICITY":0.00012406,"INCLINATION":97.8003,"RA_OF_ASC_NODE":201.8273,"ARG_OF_PERICENTER":80.3843,"MEAN_ANOMALY":279.7513,"EPHEMERIS_TYPE":0,"NORAD_CAT_ID":67385,"ELEMENT_SET_NO":999,"REV_AT_EPOCH":2859,"BSTAR":0.00046383784,"MEAN_MOTION_DOT":0.00004066,"MEAN_MOTION_DDOT":0},{"OBJECT_NAME":"CAPELLA-20 (ACADIA-10)","OBJECT_ID":"2026-067BX","EPOCH":"2026-07-22T17:05:23.887392","CLASSIFICATION_TYPE":"U","MEAN_MOTION":14.9139079,"ECCENTRICITY":0.00032344,"INCLINATION":97.7659,"RA_OF_ASC_NODE":161.4334,"ARG_OF_PERICENTER":27.5233,"MEAN_ANOMALY":332.6156,"EPHEMERIS_TYPE":0,"NORAD_CAT_ID":68485,"ELEMENT_SET_NO":999,"REV_AT_EPOCH":1702,"BSTAR":0.00055864861,"MEAN_MOTION_DOT":0.00005524,"MEAN_MOTION_DDOT":0}]}
